CRE (WAAS/PRN 138)      
1 28868U 05036A   24304.40132130 -.00000060  00000+0  00000+0 0  9998
2 28868   2.7794  83.9231 0001816 110.6145 241.8897  1.00272812 70192
IOR-W (EGNOS/PRN 126)   
1 28899U 05044A   24303.57341181 -.00000249  00000+0  00000+0 0  9995
2 28899   4.3415  42.8738 0003025 194.2470 151.2092  1.00272791 69547
GSAT-8 (GAGAN/PRN 127)  
1 37605U 11022A   24304.14761605  .00000096  00000+0  00000+0 0  9993
2 37605   0.5851  89.2779 0008121 161.8085 256.1148  1.00273269 49274
LUCH 5A (SDCM/PRN 140)  
1 37951U 11074B   24304.22913571 -.00000031  00000+0  00000+0 0  9994
2 37951   7.2304  82.8221 0004414 129.5732  76.1464  1.00274262 47225
SES-5 (EGNOS/PRN 136)   
1 38652U 12036A   24303.56575347  .00000043  00000+0  00000+0 0  9995
2 38652   0.0640 295.1571 0002130 287.7421  24.1628  1.00272990 38502
GSAT-10 (GAGAN/PRN 128) 
1 38779U 12051B   24303.58130506 -.00000156  00000+0  00000+0 0  9994
2 38779   0.0460 270.7070 0003965 215.5510 204.4391  1.00271529 44133
LUCH 5B (SDCM/PRN 125)  
1 38977U 12061A   24303.63291206 -.00000123  00000+0  00000+0 0  9990
2 38977   9.1842  55.4988 0006477 158.9090  35.5559  1.00273451 43636
ASTRA 5B (EGNOS/PRN 123)
1 39617U 14011B   24303.64099194  .00000146  00000+0  00000+0 0  9996
2 39617   0.0664 310.5551 0003704 282.6717  59.5028  1.00271590 38691
LUCH 5V (SDCM/PRN 141)  
1 39727U 14023A   24304.01254046 -.00000255  00000+0  00000+0 0  9994
2 39727   3.6357  75.0027 0004292 175.5636 247.5403  1.00269667556542
GSAT-15 (GAGAN/PRN 139) 
1 41028U 15065A   24304.01227983 -.00000247  00000+0  00000+0 0  9999
2 41028   0.0155 262.7856 0002983 298.7219 295.2609  1.00273189 32890
E 117 W B (WAAS/PRN 131)
1 41589U 16038B   24303.97049032 -.00000001  00000+0  00000+0 0  9991
2 41589   0.0120  99.5432 0000112  35.2735 136.3589  1.00271835 30738
SES-15 (WAAS/PRN 133)   
1 42709U 17026A   24298.67737145  .00000052  00000+0  00000+0 0  9998
2 42709   0.0433  46.2262 0001069 177.2440 284.8178  1.00274484  1422
QZS-2 (QZSS/PRN 194)    
1 42738U 17028A   24301.73140229 -.00000252  00000+0  00000+0 0  9998
2 42738  40.3668 251.8541 0742904 270.9223 275.0143  1.00248773  1634
QZS-3 (QZSS/PRN 199)    
1 42917U 17048A   24303.87593049 -.00000337  00000+0  00000+0 0  9992
2 42917   0.0709 139.1860 0002378  78.7867 263.1242  1.00272374 26398
QZS-4 (QZSS/PRN 195)    
1 42965U 17062A   24304.45205948 -.00000324  00000+0  00000+0 0  9990
2 42965  40.4494 351.0751 0751900 270.5279  79.8375  1.00265559 25840
BEIDOU-3 G1 (PRN 130)   
1 43683U 18085A   24304.16447087 -.00000264  00000+0  00000+0 0  9997
2 43683   2.5222 104.7021 0001711  45.7049  87.7945  1.00268071 22080
BEIDOU-3 G2 (PRN 144)   
1 45344U 20017A   24304.15256824 -.00000129  00000+0  00000+0 0  9997
2 45344   2.4995  34.3413 0004094 205.1948 294.4084  1.00271658 17307
BEIDOU-3 G3 (PRN 143)   
1 45807U 20040A   24303.94416554 -.00000343  00000+0  00000+0 0  9999
2 45807   1.0369  54.7126 0003105 302.2730 132.2344  1.00274963 16105
GALAXY 30 (WAAS/PRN 135)
1 46114U 20056C   24303.96892647  .00000048  00000+0  00000+0 0  9992
2 46114   0.0136 250.3866 0001999 324.7188  47.4884  1.00270863 15434
QZS-1R (QZSS/PRN 196)   
1 49336U 21096A   24304.29702355 -.00000204  00000+0  00000+0 0  9994
2 49336  36.2267  88.4835 0747923 270.4599 283.0646  1.00276590 11031
